ONEWEB-0545             
1 54647U 22166F   25058.49813535  .00000050  00000+0  88580-4 0  9998
2 54647  87.9346 338.6129 0001643  99.3663 260.7657 13.21823855108793
ONEWEB-0580             
1 54648U 22166G   25058.47133272  .00000086  00000+0  17718-3 0  9993
2 54648  87.9353 338.6061 0001403  87.3765 272.7529 13.21824577108839
ONEWEB-0582             
1 54649U 22166H   25058.51390842  .00000022  00000+0  20909-4 0  9994
2 54649  87.9333 338.6234 0001259  90.8115 269.3163 13.21824133108819
ONEWEB-0583             
1 54650U 22166J   25058.52495100  .00000028  00000+0  36678-4 0  9996
2 54650  87.9348 338.6208 0001753  83.2459 276.8874 13.21824852108825
ONEWEB-0584             
1 54651U 22166K   25058.46975059  .00000044  00000+0  73899-4 0  9990
2 54651  87.9352 338.6104 0001336  82.5269 277.6017 13.21823793108803
ONEWEB-0585             
1 54652U 22166L   25058.49497869  .00000142  00000+0  31189-3 0  9996
2 54652  87.9344 338.6044 0001850  75.4898 284.6441 13.21823396108817
ONEWEB-0586             
1 54653U 22166M   25058.50761221  .00000020  00000+0  16767-4 0  9996
2 54653  87.9349 338.6163 0001650  83.9821 276.1501 13.21825717108815
ONEWEB-0587             
1 54654U 22166N   25058.51706873  .00000045  00000+0  77459-4 0  9992
2 54654  87.9348 338.5654 0001954  74.5468 285.5882 13.21825466108973
